NOAA 15                 
1 25338U 98030A   25165.85995992  .00000189  00000+0  95400-4 0  9995
2 25338  98.5344 190.8640 0009914 351.2073   8.8933 14.26982562409153
DMSP 5D-3 F16 (USA 172) 
1 28054U 03048A   25165.89676010  .00000049  00000+0  49158-4 0  9993
2 28054  99.0121 181.7802 0008333 104.6467  17.5102 14.14357548117541
NOAA 18                 
1 28654U 05018A   25165.71828175  .00000133  00000+0  93579-4 0  9990
2 28654  98.8424 245.1367 0015320 113.7636 246.5145 14.13612041 34476
METEOSAT-9 (MSG-2)      
1 28912U 05049B   25164.84657976  .00000135  00000+0  00000+0 0  9997
2 28912   8.5195  57.6856 0002619   2.5260 192.6255  1.00270884  3319
EWS-G1 (GOES 13)        
1 29155U 06018A   25165.49569692  .00000011  00000+0  00000+0 0  9996
2 29155   3.5747  80.9408 0060911 266.8167 307.6088  0.98792837 39616
DMSP 5D-3 F17 (USA 191) 
1 29522U 06050A   25165.87498327  .00000059  00000+0  53153-4 0  9992
2 29522  98.7380 174.9817 0010717  30.8065 329.3735 14.14836581960471
FENGYUN 3A              
1 32958U 08026A   25165.60106640  .00000120  00000+0  77295-4 0  9991
2 32958  98.6482 109.2135 0009779 104.8932 255.3328 14.19447033883368
NOAA 19                 
1 33591U 09005A   25165.72557111  .00000169  00000+0  11420-3 0  9999
2 33591  98.9970 230.4589 0013475 353.9944   6.1065 14.13376763842837
GOES 14                 
1 35491U 09033A   25165.55587358 -.00000054  00000+0  00000+0 0  9990
2 35491   0.7286  88.0413 0002253  53.6368 213.2459  1.00273189  2902
DMSP 5D-3 F18 (USA 210) 
1 35951U 09057A   25165.87962892  .00000231  00000+0  14301-3 0  9991
2 35951  98.8594 143.4248 0010362 210.1436 149.9141 14.14635875807630
EWS-G2 (GOES 15)        
1 36411U 10008A   25165.62275925  .00000052  00000+0  00000+0 0  9996
2 36411   0.3255  85.5184 0002143 104.7696 358.4020  1.00269769 55952
COMS 1                  
1 36744U 10032A   25163.77822561 -.00000331  00000+0  00000+0 0  9991
2 36744   3.8659  79.9748 0001126   8.7548 220.8861  1.00269500 47385
FENGYUN 3B              
1 37214U 10059A   25165.91886781  .00000070  00000+0  59844-4 0  9999
2 37214  99.0121 204.3537 0022783 144.8612 338.7038 14.14731732755533
SUOMI NPP               
1 37849U 11061A   25165.75757963  .00000062  00000+0  50305-4 0  9992
2 37849  98.7580 104.9678 0000785 354.0614   6.0552 14.19539731706305
