[
  {
    "OBJECT_NAME": "NOAA 15",
    "OBJECT_ID": "1998-030A",
    "EPOCH": "2025-06-14T20:38:20.537088",
    "MEAN_MOTION": 14.26982562,
    "ECCENTRICITY": 0.0009914,
    "INCLINATION": 98.5344,
    "RA_OF_ASC_NODE": 190.864,
    "ARG_OF_PERICENTER": 351.2073,
    "MEAN_ANOMALY": 8.8933,
    "EPHEMERIS_TYPE": 0,
    "CLASSIFICATION_TYPE": "U",
    "NORAD_CAT_ID": 25338,
    "ELEMENT_SET_NO": 999,
    "REV_AT_EPOCH": 40915,
    "BSTAR": 9.54e-05,
    "MEAN_MOTION_DOT": 1.89e-06,
    "MEAN_MOTION_DDOT": 0
  },
  {
    "OBJECT_NAME": "DMSP 5D-3 F16 (USA 172)",
    "OBJECT_ID": "2003-048A",
    "EPOCH": "2025-06-14T21:31:20.072640",
    "MEAN_MOTION": 14.14357548,
    "ECCENTRICITY": 0.0008333,
    "INCLINATION": 99.0121,
    "RA_OF_ASC_NODE": 181.7802,
    "ARG_OF_PERICENTER": 104.6467,
    "MEAN_ANOMALY": 17.5102,
    "EPHEMERIS_TYPE": 0,
    "CLASSIFICATION_TYPE": "U",
    "NORAD_CAT_ID": 28054,
    "ELEMENT_SET_NO": 999,
    "REV_AT_EPOCH": 11754,
    "BSTAR": 4.9158e-05,
    "MEAN_MOTION_DOT": 4.9e-07,
    "MEAN_MOTION_DDOT": 0
  },
  {
    "OBJECT_NAME": "NOAA 18",
    "OBJECT_ID": "2005-018A",
    "EPOCH": "2025-06-14T17:14:19.543200",
    "MEAN_MOTION": 14.13612041,
    "ECCENTRICITY": 0.001532,
    "INCLINATION": 98.8424,
    "RA_OF_ASC_NODE": 245.1367,
    "ARG_OF_PERICENTER": 113.7636,
    "MEAN_ANOMALY": 246.5145,
    "EPHEMERIS_TYPE": 0,
    "CLASSIFICATION_TYPE": "U",
    "NORAD_CAT_ID": 28654,
    "ELEMENT_SET_NO": 999,
    "REV_AT_EPOCH": 3447,
    "BSTAR": 9.3579e-05,
    "MEAN_MOTION_DOT": 1.33e-06,
    "MEAN_MOTION_DDOT": 0
  },
  {
    "OBJECT_NAME": "METEOSAT-9 (MSG-2)",
    "OBJECT_ID": "2005-049B",
    "EPOCH": "2025-06-13T20:19:04.491264",
    "MEAN_MOTION": 1.00270884,
    "ECCENTRICITY": 0.0002619,
    "INCLINATION": 8.5195,
    "RA_OF_ASC_NODE": 57.6856,
    "ARG_OF_PERICENTER": 2.526,
    "MEAN_ANOMALY": 192.6255,
    "EPHEMERIS_TYPE": 0,
    "CLASSIFICATION_TYPE": "U",
    "NORAD_CAT_ID": 28912,
    "ELEMENT_SET_NO": 999,
    "REV_AT_EPOCH": 331,
    "BSTAR": 0,
    "MEAN_MOTION_DOT": 1.35e-06,
    "MEAN_MOTION_DDOT": 0
  },
  {
    "OBJECT_NAME": "EWS-G1 (GOES 13)",
    "OBJECT_ID": "2006-018A",
    "EPOCH": "2025-06-14T11:53:48.213888",
    "MEAN_MOTION": 0.98792837,
    "ECCENTRICITY": 0.0060911,
    "INCLINATION": 3.5747,
    "RA_OF_ASC_NODE": 80.9408,
    "ARG_OF_PERICENTER": 266.8167,
    "MEAN_ANOMALY": 307.6088,
    "EPHEMERIS_TYPE": 0,
    "CLASSIFICATION_TYPE": "U",
    "NORAD_CAT_ID": 29155,
    "ELEMENT_SET_NO": 999,
    "REV_AT_EPOCH": 3961,
    "BSTAR": 0,
    "MEAN_MOTION_DOT": 1.1e-07,
    "MEAN_MOTION_DDOT": 0
  },
  {
    "OBJECT_NAME": "DMSP 5D-3 F17 (USA 191)",
    "OBJECT_ID": "2006-050A",
    "EPOCH": "2025-06-14T20:59:58.554528",
    "MEAN_MOTION": 14.14836581,
    "ECCENTRICITY": 0.0010717,
    "INCLINATION": 98.738,
    "RA_OF_ASC_NODE": 174.9817,
    "ARG_OF_PERICENTER": 30.8065,
    "MEAN_ANOMALY": 329.3735,
    "EPHEMERIS_TYPE": 0,
    "CLASSIFICATION_TYPE": "U",
    "NORAD_CAT_ID": 29522,
    "ELEMENT_SET_NO": 999,
    "REV_AT_EPOCH": 96047,
    "BSTAR": 5.3153e-05,
    "MEAN_MOTION_DOT": 5.9e-07,
    "MEAN_MOTION_DDOT": 0
  },
  {
    "OBJECT_NAME": "FENGYUN 3A",
    "OBJECT_ID": "2008-026A",
    "EPOCH": "2025-06-14T14:25:32.136960",
    "MEAN_MOTION": 14.19447033,
    "ECCENTRICITY": 0.0009779,
    "INCLINATION": 98.6482,
    "RA_OF_ASC_NODE": 109.2135,
    "ARG_OF_PERICENTER": 104.8932,
    "MEAN_ANOMALY": 255.3328,
    "EPHEMERIS_TYPE": 0,
    "CLASSIFICATION_TYPE": "U",
    "NORAD_CAT_ID": 32958,
    "ELEMENT_SET_NO": 999,
    "REV_AT_EPOCH": 88336,
    "BSTAR": 7.7295e-05,
    "MEAN_MOTION_DOT": 1.2e-06,
    "MEAN_MOTION_DDOT": 0
  },
  {
    "OBJECT_NAME": "NOAA 19",
    "OBJECT_ID": "2009-005A",
    "EPOCH": "2025-06-14T17:24:49.343904",
    "MEAN_MOTION": 14.13376763,
    "ECCENTRICITY": 0.0013475,
    "INCLINATION": 98.997,
    "RA_OF_ASC_NODE": 230.4589,
    "ARG_OF_PERICENTER": 353.9944,
    "MEAN_ANOMALY": 6.1065,
    "EPHEMERIS_TYPE": 0,
    "CLASSIFICATION_TYPE": "U",
    "NORAD_CAT_ID": 33591,
    "ELEMENT_SET_NO": 999,
    "REV_AT_EPOCH": 84283,
    "BSTAR": 0.0001142,
    "MEAN_MOTION_DOT": 1.69e-06,
    "MEAN_MOTION_DDOT": 0
  },
  {
    "OBJECT_NAME": "GOES 14",
    "OBJECT_ID": "2009-033A",
    "EPOCH": "2025-06-14T13:20:27.477312",
    "MEAN_MOTION": 1.00273189,
    "ECCENTRICITY": 0.0002253,
    "INCLINATION": 0.7286,
    "RA_OF_ASC_NODE": 88.0413,
    "ARG_OF_PERICENTER": 53.6368,
    "MEAN_ANOMALY": 213.2459,
    "EPHEMERIS_TYPE": 0,
    "CLASSIFICATION_TYPE": "U",
    "NORAD_CAT_ID": 35491,
    "ELEMENT_SET_NO": 999,
    "REV_AT_EPOCH": 290,
    "BSTAR": 0,
    "MEAN_MOTION_DOT": -5.4e-07,
    "MEAN_MOTION_DDOT": 0
  },
  {
    "OBJECT_NAME": "DMSP 5D-3 F18 (USA 210)",
    "OBJECT_ID": "2009-057A",
    "EPOCH": "2025-06-14T21:06:39.938688",
    "MEAN_MOTION": 14.14635875,
    "ECCENTRICITY": 0.0010362,
    "INCLINATION": 98.8594,
    "RA_OF_ASC_NODE": 143.4248,
    "ARG_OF_PERICENTER": 210.1436,
    "MEAN_ANOMALY": 149.9141,
    "EPHEMERIS_TYPE": 0,
    "CLASSIFICATION_TYPE": "U",
    "NORAD_CAT_ID": 35951,
    "ELEMENT_SET_NO": 999,
    "REV_AT_EPOCH": 80763,
    "BSTAR": 0.00014301,
    "MEAN_MOTION_DOT": 2.31e-06,
    "MEAN_MOTION_DDOT": 0
  },
  {
    "OBJECT_NAME": "EWS-G2 (GOES 15)",
    "OBJECT_ID": "2010-008A",
    "EPOCH": "2025-06-14T14:56:46.399200",
    "MEAN_MOTION": 1.00269769,
    "ECCENTRICITY": 0.0002143,
    "INCLINATION": 0.3255,
    "RA_OF_ASC_NODE": 85.5184,
    "ARG_OF_PERICENTER": 104.7696,
    "MEAN_ANOMALY": 358.402,
    "EPHEMERIS_TYPE": 0,
    "CLASSIFICATION_TYPE": "U",
    "NORAD_CAT_ID": 36411,
    "ELEMENT_SET_NO": 999,
    "REV_AT_EPOCH": 5595,
    "BSTAR": 0,
    "MEAN_MOTION_DOT": 5.2e-07,
    "MEAN_MOTION_DDOT": 0
  },
  {
    "OBJECT_NAME": "COMS 1",
    "OBJECT_ID": "2010-032A",
    "EPOCH": "2025-06-12T18:40:38.692704",
    "MEAN_MOTION": 1.002695,
    "ECCENTRICITY": 0.0001126,
    "INCLINATION": 3.8659,
    "RA_OF_ASC_NODE": 79.9748,
    "ARG_OF_PERICENTER": 8.7548,
    "MEAN_ANOMALY": 220.8861,
    "EPHEMERIS_TYPE": 0,
    "CLASSIFICATION_TYPE": "U",
    "NORAD_CAT_ID": 36744,
    "ELEMENT_SET_NO": 999,
    "REV_AT_EPOCH": 4738,
    "BSTAR": 0,
    "MEAN_MOTION_DOT": -3.31e-06,
    "MEAN_MOTION_DDOT": 0
  },
  {
    "OBJECT_NAME": "FENGYUN 3B",
    "OBJECT_ID": "2010-059A",
    "EPOCH": "2025-06-14T22:03:10.178784",
    "MEAN_MOTION": 14.14731732,
    "ECCENTRICITY": 0.0022783,
    "INCLINATION": 99.0121,
    "RA_OF_ASC_NODE": 204.3537,
    "ARG_OF_PERICENTER": 144.8612,
    "MEAN_ANOMALY": 338.7038,
    "EPHEMERIS_TYPE": 0,
    "CLASSIFICATION_TYPE": "U",
    "NORAD_CAT_ID": 37214,
    "ELEMENT_SET_NO": 999,
    "REV_AT_EPOCH": 75553,
    "BSTAR": 5.9844e-05,
    "MEAN_MOTION_DOT": 7e-07,
    "MEAN_MOTION_DDOT": 0
  },
  {
    "OBJECT_NAME": "SUOMI NPP",
    "OBJECT_ID": "2011-061A",
    "EPOCH": "2025-06-14T18:10:54.880032",
    "MEAN_MOTION": 14.19539731,
    "ECCENTRICITY": 7.85e-05,
    "INCLINATION": 98.758,
    "RA_OF_ASC_NODE": 104.9678,
    "ARG_OF_PERICENTER": 354.0614,
    "MEAN_ANOMALY": 6.0552,
    "EPHEMERIS_TYPE": 0,
    "CLASSIFICATION_TYPE": "U",
    "NORAD_CAT_ID": 37849,
    "ELEMENT_SET_NO": 999,
    "REV_AT_EPOCH": 70630,
    "BSTAR": 5.0305e-05,
    "MEAN_MOTION_DOT": 6.2e-07,
    "MEAN_MOTION_DDOT": 0
  }
]